{
  "type": "FeatureCollection",
  "features": [
    {
      "type": "Feature",
      "properties": {
        "norad_id": 34022,
        "name": "COSMOS 2251 DEB",
        "group": "cosmos-2251-debris",
        "lat": -8.660400141837872,
        "lon": 91.99076585289401,
        "alt_km": 778.9379026887191,
        "timestamp": "2025-12-13T10:41:26.159620+00:00",
        "meta_object_name": "COSMOS 2251 DEB",
        "meta_object_id": "1993-036HH",
        "meta_epoch": "2025-12-12T20:46:11.913888",
        "meta_mean_motion": 14.38964183,
        "meta_eccentricity": 0.00227267,
        "meta_inclination": 74.0542,
        "meta_ra_of_asc_node": 270.5632,
        "meta_arg_of_pericenter": 335.5092,
        "meta_mean_anomaly": 90.0534,
        "meta_ephemeris_type": 0,
        "meta_classification_type": "U",
        "meta_norad_cat_id": 34022,
        "meta_element_set_no": 999,
        "meta_rev_at_epoch": 88197,
        "meta_bstar": 0.00038914753,
        "meta_mean_motion_dot": 1.178e-05,
        "meta_mean_motion_ddot": 0,
        "tle_line1": "1 34022U 93036HH  25346.86541567  .00001178  00000+0  38915-3 0  9999",
        "tle_line2": "2 34022  74.0542 270.5632 0022726 335.5092  90.0534 14.38964183881977"
      },
      "geometry": {
        "type": "Point",
        "coordinates": [
          91.99076585289401,
          -8.660400141837872
        ]
      }
    },
    {
      "type": "Feature",
      "properties": {
        "norad_id": 34023,
        "name": "COSMOS 2251 DEB",
        "group": "cosmos-2251-debris",
        "lat": 62.465281531133066,
        "lon": 37.106507161772704,
        "alt_km": 758.067080761065,
        "timestamp": "2025-12-13T10:41:26.159630+00:00",
        "meta_object_name": "COSMOS 2251 DEB",
        "meta_object_id": "1993-036HJ",
        "meta_epoch": "2025-12-13T00:15:21.450816",
        "meta_mean_motion": 14.40562498,
        "meta_eccentricity": 0.00184807,
        "meta_inclination": 74.0249,
        "meta_ra_of_asc_node": 251.2417,
        "meta_arg_of_pericenter": 346.856,
        "meta_mean_anomaly": 31.8005,
        "meta_ephemeris_type": 0,
        "meta_classification_type": "U",
        "meta_norad_cat_id": 34023,
        "meta_element_set_no": 999,
        "meta_rev_at_epoch": 88218,
        "meta_bstar": 0.00051849123,
        "meta_mean_motion_dot": 1.629e-05,
        "meta_mean_motion_ddot": 0,
        "tle_line1": "1 34023U 93036HJ  25347.01066494  .00001629  00000+0  51849-3 0  9991",
        "tle_line2": "2 34023  74.0249 251.2417 0018480 346.8560  31.8005 14.40562498882182"
      },
      "geometry": {
        "type": "Point",
        "coordinates": [
          37.106507161772704,
          62.465281531133066
        ]
      }
    },
    {
      "type": "Feature",
      "properties": {
        "norad_id": 34024,
        "name": "COSMOS 2251 DEB",
        "group": "cosmos-2251-debris",
        "lat": 65.27387810370746,
        "lon": 96.29803359091032,
        "alt_km": 770.5975648912663,
        "timestamp": "2025-12-13T10:41:26.159640+00:00",
        "meta_object_name": "COSMOS 2251 DEB",
        "meta_object_id": "1993-036HK",
        "meta_epoch": "2025-12-13T00:27:09.393408",
        "meta_mean_motion": 14.35397025,
        "meta_eccentricity": 0.00210395,
        "meta_inclination": 74.0465,
        "meta_ra_of_asc_node": 315.4816,
        "meta_arg_of_pericenter": 6.1353,
        "meta_mean_anomaly": 59.2802,
        "meta_ephemeris_type": 0,
        "meta_classification_type": "U",
        "meta_norad_cat_id": 34024,
        "meta_element_set_no": 999,
        "meta_rev_at_epoch": 88028,
        "meta_bstar": 0.00030954317,
        "meta_mean_motion_dot": 8.65e-06,
        "meta_mean_motion_ddot": 0,
        "tle_line1": "1 34024U 93036HK  25347.01885872  .00000865  00000+0  30954-3 0  9996",
        "tle_line2": "2 34024  74.0465 315.4816 0021039   6.1353  59.2802 14.35397025880283"
      },
      "geometry": {
        "type": "Point",
        "coordinates": [
          96.29803359091032,
          65.27387810370746
        ]
      }
    },
    {
      "type": "Feature",
      "properties": {
        "norad_id": 34026,
        "name": "COSMOS 2251 DEB",
        "group": "cosmos-2251-debris",
        "lat": 4.174715459451027,
        "lon": 154.89381005887296,
        "alt_km": 792.6982139527636,
        "timestamp": "2025-12-13T10:41:26.159650+00:00",
        "meta_object_name": "COSMOS 2251 DEB",
        "meta_object_id": "1993-036HM",
        "meta_epoch": "2025-12-12T23:24:53.502336",
        "meta_mean_motion": 13.65309632,
        "meta_eccentricity": 0.03505785,
        "meta_inclination": 73.7668,
        "meta_ra_of_asc_node": 336.8932,
        "meta_arg_of_pericenter": 206.8736,
        "meta_mean_anomaly": 182.2794,
        "meta_ephemeris_type": 0,
        "meta_classification_type": "U",
        "meta_norad_cat_id": 34026,
        "meta_element_set_no": 999,
        "meta_rev_at_epoch": 83535,
        "meta_bstar": 0.00099997322,
        "meta_mean_motion_dot": 1.214e-05,
        "meta_mean_motion_ddot": 0,
        "tle_line1": "1 34026U 93036HM  25346.97561924  .00001214  00000+0  99997-3 0  9992",
        "tle_line2": "2 34026  73.7668 336.8932 0350578 206.8736 182.2794 13.65309632835353"
      },
      "geometry": {
        "type": "Point",
        "coordinates": [
          154.89381005887296,
          4.174715459451027
        ]
      }
    },
    {
      "type": "Feature",
      "properties": {
        "norad_id": 34028,
        "name": "COSMOS 2251 DEB",
        "group": "cosmos-2251-debris",
        "lat": 68.51914505192175,
        "lon": 33.45027481023073,
        "alt_km": 889.5810155987074,
        "timestamp": "2025-12-13T10:41:26.159661+00:00",
        "meta_object_name": "COSMOS 2251 DEB",
        "meta_object_id": "1993-036HP",
        "meta_epoch": "2025-12-12T18:48:32.372064",
        "meta_mean_motion": 13.20622701,
        "meta_eccentricity": 0.05436979,
        "meta_inclination": 73.8832,
        "meta_ra_of_asc_node": 347.1829,
        "meta_arg_of_pericenter": 125.0225,
        "meta_mean_anomaly": 50.226,
        "meta_ephemeris_type": 0,
        "meta_classification_type": "U",
        "meta_norad_cat_id": 34028,
        "meta_element_set_no": 999,
        "meta_rev_at_epoch": 81008,
        "meta_bstar": 0.00046838294,
        "meta_mean_motion_dot": 3.97e-06,
        "meta_mean_motion_ddot": 0,
        "tle_line1": "1 34028U 93036HP  25346.78370801  .00000397  00000+0  46838-3 0  9992",
        "tle_line2": "2 34028  73.8832 347.1829 0543697 125.0225  50.2260 13.20622701810081"
      },
      "geometry": {
        "type": "Point",
        "coordinates": [
          33.45027481023073,
          68.51914505192175
        ]
      }
    },
    {
      "type": "Feature",
      "properties": {
        "norad_id": 34031,
        "name": "COSMOS 2251 DEB",
        "group": "cosmos-2251-debris",
        "lat": -2.3279961184771003,
        "lon": 133.69269936528994,
        "alt_km": 700.7767753122025,
        "timestamp": "2025-12-13T10:41:26.159671+00:00",
        "meta_object_name": "COSMOS 2251 DEB",
        "meta_object_id": "1993-036HS",
        "meta_epoch": "2025-12-12T10:10:16.861728",
        "meta_mean_motion": 14.59681802,
        "meta_eccentricity": 0.00229554,
        "meta_inclination": 74.0124,
        "meta_ra_of_asc_node": 136.311,
        "meta_arg_of_pericenter": 256.5815,
        "meta_mean_anomaly": 134.4779,
        "meta_ephemeris_type": 0,
        "meta_classification_type": "U",
        "meta_norad_cat_id": 34031,
        "meta_element_set_no": 999,
        "meta_rev_at_epoch": 88561,
        "meta_bstar": 0.002061511,
        "meta_mean_motion_dot": 9.845e-05,
        "meta_mean_motion_ddot": 0,
        "tle_line1": "1 34031U 93036HS  25346.42380627  .00009845  00000+0  20615-2 0  9995",
        "tle_line2": "2 34031  74.0124 136.3110 0022955 256.5815 134.4779 14.59681802885618"
      },
      "geometry": {
        "type": "Point",
        "coordinates": [
          133.69269936528994,
          -2.3279961184771003
        ]
      }
    },
    {
      "type": "Feature",
      "properties": {
        "norad_id": 34035,
        "name": "COSMOS 2251 DEB",
        "group": "cosmos-2251-debris",
        "lat": 37.09412707141902,
        "lon": 155.33851047199317,
        "alt_km": 744.2171500952927,
        "timestamp": "2025-12-13T10:41:26.159681+00:00",
        "meta_object_name": "COSMOS 2251 DEB",
        "meta_object_id": "1993-036HW",
        "meta_epoch": "2025-12-12T03:09:11.696832",
        "meta_mean_motion": 14.51928627,
        "meta_eccentricity": 0.00446689,
        "meta_inclination": 74.0661,
        "meta_ra_of_asc_node": 350.2834,
        "meta_arg_of_pericenter": 351.8965,
        "meta_mean_anomaly": 123.1783,
        "meta_ephemeris_type": 0,
        "meta_classification_type": "U",
        "meta_norad_cat_id": 34035,
        "meta_element_set_no": 999,
        "meta_rev_at_epoch": 87957,
        "meta_bstar": 0.0025029789,
        "meta_mean_motion_dot": 0.00010215,
        "meta_mean_motion_ddot": 0,
        "tle_line1": "1 34035U 93036HW  25346.13138538  .00010215  00000+0  25030-2 0  9998",
        "tle_line2": "2 34035  74.0661 350.2834 0044668 351.8965 123.1783 14.51928627879577"
      },
      "geometry": {
        "type": "Point",
        "coordinates": [
          155.33851047199317,
          37.09412707141902
        ]
      }
    }
  ]
}